{"spkid": "50840781", "covariance": {"labels": ["e", "q", "tp", "node", "peri", "i"], "data": [["1.978319713063608E-14", "-1.775873479737364E-14", "1.532914899521493E-12", "-5.389888195346575E-12", "5.384751850466931E-12", "-9.890863065390176E-14"], ["-1.775873479737364E-14", "1.599508160084862E-14", "-1.288772334870379E-12", "4.643886981007623E-12", "-4.596199768265411E-12", "8.303320529233571E-14"], ["1.532914899521493E-12", "-1.288772334870379E-12", "3.147608918387648E-10", "-8.777499020911955E-10", "1.012418902844392E-9", "-3.700081863544516E-11"], ["-5.389888195346575E-12", "4.643886981007623E-12", "-8.777499020911955E-10", "4.966717303179661E-8", "-4.998290245665923E-8", "-1.327322430242594E-9"], ["5.384751850466931E-12", "-4.596199768265411E-12", "1.012418902844392E-9", "-4.998290245665923E-8", "5.041435818124565E-8", "1.296538291265128E-9"], ["-9.890863065390176E-14", "8.303320529233571E-14", "-3.700081863544516E-11", "-1.327322430242594E-9", "1.296538291265128E-9", "5.661139828792567E-11"]], "elements": [{"label": "e", "sigma": 1.40652753725749e-07, "name": "e", "value": ".5376081921048667", "title": "eccentricity", "units": null}, {"title": "perihelion distance", "value": ".4034914278434426", "units": "au", "sigma": 1.26471663232712e-07, "name": "q", "label": "q"}, {"label": "tp", "sigma": 1.77415019611859e-05, "name": "tp", "units": "TDB", "title": "time of perihelion passage", "value": "2458808.093348905724"}, {"label": "node", "units": "deg", "value": "51.97991823941858", "title": "longitude of the ascending node", "sigma": 0.000222861331396446, "name": "om"}, {"label": "peri", "sigma": 0.000224531419140497, "name": "w", "units": "deg", "value": "1.697895261488976", "title": "argument of perihelion"}, {"label": "i", "name": "i", "sigma": 7.52405464413475e-06, "units": "deg", "title": "inclination", "value": "1.555866246861895"}], "epoch": "2458767.5"}, "elements": [{"label": "e", "title": "eccentricity", "value": ".537534170891848", "units": null, "sigma": "1.4071E-7", "name": "e"}, {"value": ".8727297353553831", "title": "semi-major axis", "units": "au", "sigma": "1.7257E-8", "name": "a", "label": "a"}, {"label": "q", "units": "au", "title": "perihelion distance", "value": ".4036076806484654", "name": "q", "sigma": "1.2658E-7"}, {"name": "i", "sigma": "7.5173E-6", "title": "inclination; angle with respect to x-y ecliptic plane", "value": "1.554823753170775", "units": "deg", "label": "i"}, {"label": "node", "sigma": ".00022311", "name": "om", "value": "51.9606431270743", "title": "longitude of the ascending node", "units": "deg"}, {"sigma": ".0002248", "name": "w", "units": "deg", "title": "argument of perihelion", "value": "1.692871762634292", "label": "peri"}, {"units": "deg", "value": "12.30560989784686", "title": "mean anomaly", "sigma": "9.6195E-5", "name": "ma", "label": "M"}, {"units": "TDB", "title": "time of perihelion passage", "value": "2461190.320680884070", "name": "tp", "sigma": "7.9279E-5", "label": "tp"}, {"label": "period", "units": "d", "value": "297.7954698837113", "title": "sidereal orbital period", "name": "per", "sigma": "8.8326E-6"}, {"name": "n", "sigma": "3.5856E-8", "title": "mean motion", "value": "1.208883399537876", "units": "deg/d", "label": "n"}, {"sigma": "2.6533E-8", "name": "ad", "title": "aphelion distance", "value": "1.341851790062301", "units": "au", "label": "Q"}], "epoch": "2461200.5"}